STARLINK-36830
1 68110U 26044K   26092.83335647 -.01876830  00000+0 -31518-1 0  9993
2 68110  97.2856  54.0995 0001849  87.7211  19.2875 15.55144639  5285
